IDEFIX & ARIANE 42P R/B 
1 27422U 02021B   25361.26713562  .00000371  00000+0  15748-3 0  9999
2 27422  98.5804 295.7707 0012693  44.3917 315.8281 14.30960949233662
AQUA                    
1 27424U 02022A   25360.99159258  .00001315  00000+0  27355-3 0  9993
2 27424  98.4058 322.1038 0001849  99.7002 302.1298 14.61764548258111
CZ-4B R/B               
1 27432U 02024C   25361.13863666  .00000050  00000+0  49045-4 0  9992
2 27432  98.8979  49.8588 0049440 228.2653 154.8220 14.14530842218983
MIDORI II (ADEOS-II)    
1 27597U 02056A   25361.13714627  .00000384  00000+0  16885-3 0  9996
2 27597  98.7656 314.1704 0000908 145.2788 214.8453 14.29215794199937
H-2A R/B                
1 27601U 02056E   25360.91940019  .00000495  00000+0  18809-3 0  9994
2 27601  98.3086 319.1130 0070797  19.3907  49.0746 14.33688828203689
CZ-4B R/B               
1 28059U 03049C   25361.24421064  .00000517  00000+0  13008-3 0  9997
2 28059  98.6799 348.3567 0049400  92.6997 267.9855 14.54923475176065
CZ-2C R/B               
1 28222U 04012C   25361.08009628  .00047921  00000+0  66836-3 0  9997
2 28222  97.7395  54.8950 0016670 214.7570 145.2597 15.56602786192950
SL-16 R/B               
1 28353U 04021B   25361.25921700  .00000247  00000+0  15352-3 0  9992
2 28353  71.0004  24.4951 0004493 175.5428 184.5735 14.14580872112593
CZ-4B R/B               
1 28415U 04035C   25361.10446418  .00010332  00000+0  37972-3 0  9996
2 28415  97.3598  31.2575 0031867 224.1058 135.7640 15.27607937168821
CZ-2C R/B               
1 28480U 04046B   25361.19315810  .00000349  00000+0  14481-3 0  9997
2 28480  98.1997 275.6734 0139775   9.7750 350.6100 14.26949738 98163
ARIANE 5 R/B            
1 28499U 04049H   25361.20659452  .00001522  00000+0  17465-3 0  9994
2 28499  98.2530 162.0075 0083580 225.4732 133.9633 14.85050302135039
CZ-2D R/B               
1 28738U 05024B   25361.02080426  .00036893  00000+0  56968-3 0  9993
2 28738  97.3631   8.8497 0003316 303.9804  56.1134 15.54032763128473
