CCSDS_OMM_VERS = 2.0
CREATION_DATE  = 
ORIGINATOR     = 

OBJECT_NAME    = IDEFIX & ARIANE 42P R/B
OBJECT_ID      = 2002-021B
CENTER_NAME    = EARTH
REF_FRAME      = TEME
TIME_SYSTEM    = UTC
MEAN_ELEMENT_THEORY = SGP/SGP4

EPOCH          = 2025-12-27T06:24:40.517568
MEAN_MOTION    = 14.30960949
ECCENTRICITY   = .00126938
INCLINATION    = 98.5804
RA_OF_ASC_NODE = 295.7707
ARG_OF_PERICENTER = 44.3917
MEAN_ANOMALY   = 315.8281

EPHEMERIS_TYPE = 0
CLASSIFICATION_TYPE = U
NORAD_CAT_ID   = 27422
ELEMENT_SET_NO = 999
REV_AT_EPOCH   = 23366
BSTAR          = .15747764E-3
MEAN_MOTION_DOT = .371E-5
MEAN_MOTION_DDOT = 0

CCSDS_OMM_VERS = 2.0
CREATION_DATE  = 
ORIGINATOR     = 

OBJECT_NAME    = AQUA
OBJECT_ID      = 2002-022A
CENTER_NAME    = EARTH
REF_FRAME      = TEME
TIME_SYSTEM    = UTC
MEAN_ELEMENT_THEORY = SGP/SGP4

EPOCH          = 2025-12-26T23:47:53.598912
MEAN_MOTION    = 14.61764548
ECCENTRICITY   = .00018494
INCLINATION    = 98.4058
RA_OF_ASC_NODE = 322.1038
ARG_OF_PERICENTER = 99.7002
MEAN_ANOMALY   = 302.1298

EPHEMERIS_TYPE = 0
CLASSIFICATION_TYPE = U
NORAD_CAT_ID   = 27424
ELEMENT_SET_NO = 999
REV_AT_EPOCH   = 25811
BSTAR          = .27355086E-3
MEAN_MOTION_DOT = .1315E-4
MEAN_MOTION_DDOT = 0

CCSDS_OMM_VERS = 2.0
CREATION_DATE  = 
ORIGINATOR     = 

OBJECT_NAME    = CZ-4B R/B
OBJECT_ID      = 2002-024C
CENTER_NAME    = EARTH
REF_FRAME      = TEME
TIME_SYSTEM    = UTC
MEAN_ELEMENT_THEORY = SGP/SGP4

EPOCH          = 2025-12-27T03:19:38.207424
MEAN_MOTION    = 14.14530842
ECCENTRICITY   = .00494403
INCLINATION    = 98.8979
RA_OF_ASC_NODE = 49.8588
ARG_OF_PERICENTER = 228.2653
MEAN_ANOMALY   = 154.8220

EPHEMERIS_TYPE = 0
CLASSIFICATION_TYPE = U
NORAD_CAT_ID   = 27432
ELEMENT_SET_NO = 999
REV_AT_EPOCH   = 21898
BSTAR          = .49044627E-4
MEAN_MOTION_DOT = .5E-6
MEAN_MOTION_DDOT = 0

CCSDS_OMM_VERS = 2.0
CREATION_DATE  = 
ORIGINATOR     = 

OBJECT_NAME    = MIDORI II (ADEOS-II)
OBJECT_ID      = 2002-056A
CENTER_NAME    = EARTH
REF_FRAME      = TEME
TIME_SYSTEM    = UTC
MEAN_ELEMENT_THEORY = SGP/SGP4

EPOCH          = 2025-12-27T03:17:29.437728
MEAN_MOTION    = 14.29215794
ECCENTRICITY   = .00009089
INCLINATION    = 98.7656
RA_OF_ASC_NODE = 314.1704
ARG_OF_PERICENTER = 145.2788
MEAN_ANOMALY   = 214.8453

EPHEMERIS_TYPE = 0
CLASSIFICATION_TYPE = U
NORAD_CAT_ID   = 27597
ELEMENT_SET_NO = 999
REV_AT_EPOCH   = 19993
BSTAR          = .16884918E-3
MEAN_MOTION_DOT = .384E-5
MEAN_MOTION_DDOT = 0

CCSDS_OMM_VERS = 2.0
CREATION_DATE  = 
ORIGINATOR     = 

OBJECT_NAME    = H-2A R/B
OBJECT_ID      = 2002-056E
CENTER_NAME    = EARTH
REF_FRAME      = TEME
TIME_SYSTEM    = UTC
MEAN_ELEMENT_THEORY = SGP/SGP4

EPOCH          = 2025-12-26T22:03:56.176416
MEAN_MOTION    = 14.33688828
ECCENTRICITY   = .0070797
INCLINATION    = 98.3086
RA_OF_ASC_NODE = 319.1130
ARG_OF_PERICENTER = 19.3907
MEAN_ANOMALY   = 49.0746

EPHEMERIS_TYPE = 0
CLASSIFICATION_TYPE = U
NORAD_CAT_ID   = 27601
ELEMENT_SET_NO = 999
REV_AT_EPOCH   = 20368
BSTAR          = .18809E-3
MEAN_MOTION_DOT = .495E-5
MEAN_MOTION_DDOT = 0

CCSDS_OMM_VERS = 2.0
CREATION_DATE  = 
ORIGINATOR     = 

OBJECT_NAME    = CZ-4B R/B
OBJECT_ID      = 2003-049C
CENTER_NAME    = EARTH
REF_FRAME      = TEME
TIME_SYSTEM    = UTC
MEAN_ELEMENT_THEORY = SGP/SGP4

EPOCH          = 2025-12-27T05:51:39.799296
MEAN_MOTION    = 14.54923475
ECCENTRICITY   = .00494007
INCLINATION    = 98.6799
RA_OF_ASC_NODE = 348.3567
ARG_OF_PERICENTER = 92.6997
MEAN_ANOMALY   = 267.9855

EPHEMERIS_TYPE = 0
CLASSIFICATION_TYPE = U
NORAD_CAT_ID   = 28059
ELEMENT_SET_NO = 999
REV_AT_EPOCH   = 17606
BSTAR          = .13007696E-3
MEAN_MOTION_DOT = .517E-5
MEAN_MOTION_DDOT = 0

CCSDS_OMM_VERS = 2.0
CREATION_DATE  = 
ORIGINATOR     = 

OBJECT_NAME    = CZ-2C R/B
OBJECT_ID      = 2004-012C
CENTER_NAME    = EARTH
REF_FRAME      = TEME
TIME_SYSTEM    = UTC
MEAN_ELEMENT_THEORY = SGP/SGP4

EPOCH          = 2025-12-27T01:55:20.318592
MEAN_MOTION    = 15.56602786
ECCENTRICITY   = .00166701
INCLINATION    = 97.7395
RA_OF_ASC_NODE = 54.8950
ARG_OF_PERICENTER = 214.7570
MEAN_ANOMALY   = 145.2597

EPHEMERIS_TYPE = 0
CLASSIFICATION_TYPE = U
NORAD_CAT_ID   = 28222
ELEMENT_SET_NO = 999
REV_AT_EPOCH   = 19295
BSTAR          = .66836226E-3
MEAN_MOTION_DOT = .47921E-3
MEAN_MOTION_DDOT = 0

CCSDS_OMM_VERS = 2.0
CREATION_DATE  = 
ORIGINATOR     = 

OBJECT_NAME    = SL-16 R/B
OBJECT_ID      = 2004-021B
CENTER_NAME    = EARTH
REF_FRAME      = TEME
TIME_SYSTEM    = UTC
MEAN_ELEMENT_THEORY = SGP/SGP4

EPOCH          = 2025-12-27T06:13:16.348800
MEAN_MOTION    = 14.14580872
ECCENTRICITY   = .00044931
INCLINATION    = 71.0004
RA_OF_ASC_NODE = 24.4951
ARG_OF_PERICENTER = 175.5428
MEAN_ANOMALY   = 184.5735

EPHEMERIS_TYPE = 0
CLASSIFICATION_TYPE = U
NORAD_CAT_ID   = 28353
ELEMENT_SET_NO = 999
REV_AT_EPOCH   = 11259
BSTAR          = .15352015E-3
MEAN_MOTION_DOT = .247E-5
MEAN_MOTION_DDOT = 0

CCSDS_OMM_VERS = 2.0
CREATION_DATE  = 
ORIGINATOR     = 

OBJECT_NAME    = CZ-4B R/B
OBJECT_ID      = 2004-035C
CENTER_NAME    = EARTH
REF_FRAME      = TEME
TIME_SYSTEM    = UTC
MEAN_ELEMENT_THEORY = SGP/SGP4

EPOCH          = 2025-12-27T02:30:25.705152
MEAN_MOTION    = 15.27607937
ECCENTRICITY   = .00318671
INCLINATION    = 97.3598
RA_OF_ASC_NODE = 31.2575
ARG_OF_PERICENTER = 224.1058
MEAN_ANOMALY   = 135.7640

EPHEMERIS_TYPE = 0
CLASSIFICATION_TYPE = U
NORAD_CAT_ID   = 28415
ELEMENT_SET_NO = 999
REV_AT_EPOCH   = 16882
BSTAR          = .37972333E-3
MEAN_MOTION_DOT = .10332E-3
MEAN_MOTION_DDOT = 0

CCSDS_OMM_VERS = 2.0
CREATION_DATE  = 
ORIGINATOR     = 

OBJECT_NAME    = CZ-2C R/B
OBJECT_ID      = 2004-046B
CENTER_NAME    = EARTH
REF_FRAME      = TEME
TIME_SYSTEM    = UTC
MEAN_ELEMENT_THEORY = SGP/SGP4

EPOCH          = 2025-12-27T04:38:08.859840
MEAN_MOTION    = 14.26949738
ECCENTRICITY   = .01397757
INCLINATION    = 98.1997
RA_OF_ASC_NODE = 275.6734
ARG_OF_PERICENTER = 9.7750
MEAN_ANOMALY   = 350.6100

EPHEMERIS_TYPE = 0
CLASSIFICATION_TYPE = U
NORAD_CAT_ID   = 28480
ELEMENT_SET_NO = 999
REV_AT_EPOCH   = 9816
BSTAR          = .14480601E-3
MEAN_MOTION_DOT = .349E-5
MEAN_MOTION_DDOT = 0

CCSDS_OMM_VERS = 2.0
CREATION_DATE  = 
ORIGINATOR     = 

OBJECT_NAME    = ARIANE 5 R/B
OBJECT_ID      = 2004-049H
CENTER_NAME    = EARTH
REF_FRAME      = TEME
TIME_SYSTEM    = UTC
MEAN_ELEMENT_THEORY = SGP/SGP4

EPOCH          = 2025-12-27T04:57:29.766528
MEAN_MOTION    = 14.85050302
ECCENTRICITY   = .00835805
INCLINATION    = 98.2530
RA_OF_ASC_NODE = 162.0075
ARG_OF_PERICENTER = 225.4732
MEAN_ANOMALY   = 133.9633

EPHEMERIS_TYPE = 0
CLASSIFICATION_TYPE = U
NORAD_CAT_ID   = 28499
ELEMENT_SET_NO = 999
REV_AT_EPOCH   = 13503
BSTAR          = .17465359E-3
MEAN_MOTION_DOT = .1522E-4
MEAN_MOTION_DDOT = 0

CCSDS_OMM_VERS = 2.0
CREATION_DATE  = 
ORIGINATOR     = 

OBJECT_NAME    = CZ-2D R/B
OBJECT_ID      = 2005-024B
CENTER_NAME    = EARTH
REF_FRAME      = TEME
TIME_SYSTEM    = UTC
MEAN_ELEMENT_THEORY = SGP/SGP4

EPOCH          = 2025-12-27T00:29:57.488064
MEAN_MOTION    = 15.54032763
ECCENTRICITY   = .00033166
INCLINATION    = 97.3631
RA_OF_ASC_NODE = 8.8497
ARG_OF_PERICENTER = 303.9804
MEAN_ANOMALY   = 56.1134

EPHEMERIS_TYPE = 0
CLASSIFICATION_TYPE = U
NORAD_CAT_ID   = 28738
ELEMENT_SET_NO = 999
REV_AT_EPOCH   = 12847
BSTAR          = .56968118E-3
MEAN_MOTION_DOT = .36893E-3
MEAN_MOTION_DDOT = 0

